start=new Date('2021-08-28T00:00:00.000Z').valueOf();
sats=[{"OBJECT_NAME":"STARLINK-2111","CLASSIFICATION_TYPE":"U","REV_AT_EPOCH":"3358","MEAN_MOTION":"15.06405267","NORAD_CAT_ID":"47390","DECAY_DATE":null,"MEAN_MOTION_DDOT":"0.0000000000000","ECCENTRICITY":"0.00008880","FILE":"3104038","RCS_SIZE":"LARGE","PERIAPSIS":"546.582","EPHEMERIS_TYPE":"0","CENTER_NAME":"EARTH","BSTAR":"0.00007674800000","TLE_LINE2":"2 47390  53.0550 291.4828 0000888  73.0440 287.0646 15.06405267 33587","LAUNCH_DATE":"2021-01-20","RA_OF_ASC_NODE":"291.4828","REF_FRAME":"TEME","MEAN_MOTION_DOT":"0.00000862","SEMIMAJOR_AXIS":"6925.332","ARG_OF_PERICENTER":"73.0440","PERIOD":"95.592","MEAN_ANOMALY":"287.0646","ELEMENT_SET_NO":"999","OBJECT_ID":"2021-005AT","TIME_SYSTEM":"UTC","MEAN_ELEMENT_THEORY":"SGP4","TLE_LINE1":"1 47390U 21005AT  21239.62467067  .00000862  00000-0  76748-4 0  9998","GP_ID":"183557843","EPOCH":"2021-08-27T14:59:31.545888","INCLINATION":"53.0550","APOAPSIS":"547.812","COUNTRY_CODE":"US","SITE":"AFETR","OBJECT_TYPE":"PAYLOAD"},{"LAUNCH_DATE":"2021-01-20","FILE":"3104038","RCS_SIZE":"LARGE","EPHEMERIS_TYPE":"0","PERIAPSIS":"547.153","CENTER_NAME":"EARTH","BSTAR":"0.00009897900000","TLE_LINE2":"2 47391  53.0519 260.8540 0000065  28.3049 331.7944 15.06405230 34027","ECCENTRICITY":"0.00000650","DECAY_DATE":null,"MEAN_MOTION_DDOT":"0.0000000000000","REV_AT_EPOCH":"3402","MEAN_MOTION":"15.06405230","NORAD_CAT_ID":"47391","CLASSIFICATION_TYPE":"U","OBJECT_NAME":"STARLINK-2112","SITE":"AFETR","OBJECT_TYPE":"PAYLOAD","COUNTRY_CODE":"US","EPOCH":"2021-08-27T18:23:51.078624","APOAPSIS":"547.243","INCLINATION":"53.0519","OBJECT_ID":"2021-005AU","TIME_SYSTEM":"UTC","MEAN_ELEMENT_THEORY":"SGP4","TLE_LINE1":"1 47391U 21005AU  21239.76656341  .00001194  00000-0  98979-4 0  9998","GP_ID":"183556610","ELEMENT_SET_NO":"999","MEAN_ANOMALY":"331.7944","SEMIMAJOR_AXIS":"6925.333","ARG_OF_PERICENTER":"28.3049","PERIOD":"95.592","RA_OF_ASC_NODE":"260.8540","REF_FRAME":"TEME","MEAN_MOTION_DOT":"0.00001194"},{"NORAD_CAT_ID":"47392","MEAN_MOTION":"15.06393554","REV_AT_EPOCH":"3402","OBJECT_NAME":"STARLINK-2113","CLASSIFICATION_TYPE":"U","TLE_LINE2":"2 47392  53.0507 260.8552 0000389  28.7194 331.3816 15.06393554 34021","BSTAR":"0.00006813900000","PERIAPSIS":"546.964","FILE":"3104038","RCS_SIZE":"LARGE","EPHEMERIS_TYPE":"0","CENTER_NAME":"EARTH","LAUNCH_DATE":"2021-01-20","MEAN_MOTION_DDOT":"0.0000000000000","DECAY_DATE":null,"ECCENTRICITY":"0.00003890","PERIOD":"95.593","ARG_OF_PERICENTER":"28.7194","SEMIMAJOR_AXIS":"6925.368","MEAN_ANOMALY":"331.3816","ELEMENT_SET_NO":"999","MEAN_MOTION_DOT":"0.00000734","RA_OF_ASC_NODE":"260.8552","REF_FRAME":"TEME","COUNTRY_CODE":"US","OBJECT_TYPE":"PAYLOAD","SITE":"AFETR","GP_ID":"183556345","TLE_LINE1":"1 47392U 21005AV  21239.76752591  .00000734  00000-0  68139-4 0  9997","MEAN_ELEMENT_THEORY":"SGP4","TIME_SYSTEM":"UTC","OBJECT_ID":"2021-005AV","INCLINATION":"53.0507","APOAPSIS":"547.503","EPOCH":"2021-08-27T18:25:14.238624"},{"OBJECT_NAME":"STARLINK-2114","CLASSIFICATION_TYPE":"U","MEAN_MOTION":"15.06390193","NORAD_CAT_ID":"47393","REV_AT_EPOCH":"3429","MEAN_MOTION_DDOT":"0.0000000000000","DECAY_DATE":null,"ECCENTRICITY":"0.00015620","BSTAR":"-0.00006990200000","TLE_LINE2":"2 47393  53.0337 238.3722 0001562  61.3115 298.8030 15.06390193 34292","FILE":"3103885","EPHEMERIS_TYPE":"0","RCS_SIZE":"LARGE","PERIAPSIS":"546.162","CENTER_NAME":"EARTH","LAUNCH_DATE":"2021-01-20","RA_OF_ASC_NODE":"238.3722","REF_FRAME":"TEME","MEAN_MOTION_DOT":"-0.00001322","SEMIMAJOR_AXIS":"6925.379","ARG_OF_PERICENTER":"61.3115","PERIOD":"95.593","ELEMENT_SET_NO":"999","MEAN_ANOMALY":"298.8030","TLE_LINE1":"1 47393U 21005AW  21239.22887585 -.00001322  00000-0 -69902-4 0  9996","GP_ID":"183529830","TIME_SYSTEM":"UTC","OBJECT_ID":"2021-005AW","MEAN_ELEMENT_THEORY":"SGP4","EPOCH":"2021-08-27T05:29:34.873440","INCLINATION":"53.0337","APOAPSIS":"548.325","COUNTRY_CODE":"US","SITE":"AFETR","OBJECT_TYPE":"PAYLOAD"},{"LAUNCH_DATE":"2021-01-20","TLE_LINE2":"2 47394  53.0563 255.8141 0000461 352.4651   7.6331 15.06389102 34107","BSTAR":"0.00006191100000","RCS_SIZE":"LARGE","FILE":"3104038","EPHEMERIS_TYPE":"0","PERIAPSIS":"546.928","CENTER_NAME":"EARTH","ECCENTRICITY":"0.00004610","MEAN_MOTION_DDOT":"0.0000000000000","DECAY_DATE":null,"NORAD_CAT_ID":"47394","MEAN_MOTION":"15.06389102","REV_AT_EPOCH":"3410","CLASSIFICATION_TYPE":"U","OBJECT_NAME":"STARLINK-2115","OBJECT_TYPE":"PAYLOAD","SITE":"AFETR","COUNTRY_CODE":"US","APOAPSIS":"547.566","INCLINATION":"53.0563","EPOCH":"2021-08-27T18:37:48.121824","GP_ID":"183557329","TLE_LINE1":"1 47394U 21005AX  21239.77625141  .00000641  00000-0  61911-4 0  9998","MEAN_ELEMENT_THEORY":"SGP4","TIME_SYSTEM":"UTC","OBJECT_ID":"2021-005AX","ELEMENT_SET_NO":"999","MEAN_ANOMALY":"7.6331","PERIOD":"95.593","SEMIMAJOR_AXIS":"6925.382","ARG_OF_PERICENTER":"352.4651","MEAN_MOTION_DOT":"0.00000641","REF_FRAME":"TEME","RA_OF_ASC_NODE":"255.8141"},{"MEAN_ELEMENT_THEORY":"SGP4","TIME_SYSTEM":"UTC","OBJECT_ID":"2021-005AY","GP_ID":"183556096","TLE_LINE1":"1 47395U 21005AY  21239.74631068  .00001020  00000-0  87340-4 0  9997","INCLINATION":"53.0527","APOAPSIS":"547.576","EPOCH":"2021-08-27T17:54:41.242752","COUNTRY_CODE":"US","OBJECT_TYPE":"PAYLOAD","SITE":"AFETR","MEAN_MOTION_DOT":"0.00001020","RA_OF_ASC_NODE":"250.9376","REF_FRAME":"TEME","PERIOD":"95.592","SEMIMAJOR_AXIS":"6925.341","ARG_OF_PERICENTER":"23.4029","MEAN_ANOMALY":"336.6984","ELEMENT_SET_NO":"999","DECAY_DATE":null,"MEAN_MOTION_DDOT":"0.0000000000000","ECCENTRICITY":"0.00005340","PERIAPSIS":"546.836","FILE":"3104038","RCS_SIZE":"LARGE","CENTER_NAME":"EARTH","EPHEMERIS_TYPE":"0","TLE_LINE2":"2 47395  53.0527 250.9376 0000534  23.4029 336.6984 15.06402539 34164","BSTAR":"0.00008734000000","LAUNCH_DATE":"2021-01-20","OBJECT_NAME":"STARLINK-2117","CLASSIFICATION_TYPE":"U","REV_AT_EPOCH":"3416","NORAD_CAT_ID":"47395","MEAN_MOTION":"15.06402539"},{"GP_ID":"183556860","TLE_LINE1":"1 47396U 21005AZ  21239.78963607  .00000608  00000-0  59676-4 0  9991","MEAN_ELEMENT_THEORY":"SGP4","TIME_SYSTEM":"UTC","OBJECT_ID":"2021-005AZ","APOAPSIS":"547.397","INCLINATION":"53.0548","EPOCH":"2021-08-27T18:57:04.556448","COUNTRY_CODE":"US","OBJECT_TYPE":"PAYLOAD","SITE":"AFETR","MEAN_MOTION_DOT":"0.00000608","RA_OF_ASC_NODE":"260.7451","REF_FRAME":"TEME","PERIOD":"95.593","SEMIMAJOR_AXIS":"6925.381","ARG_OF_PERICENTER":"29.0777","MEAN_ANOMALY":"331.0224","ELEMENT_SET_NO":"999","MEAN_MOTION_DDOT":"0.0000000000000","DECAY_DATE":null,"ECCENTRICITY":"0.00002180","TLE_LINE2":"2 47396  53.0548 260.7451 0000218  29.0777 331.0224 15.06389465 34036","BSTAR":"0.00005967600000","PERIAPSIS":"547.095","FILE":"3104038","RCS_SIZE":"LARGE","EPHEMERIS_TYPE":"0","CENTER_NAME":"EARTH","LAUNCH_DATE":"2021-01-20","OBJECT_NAME":"STARLINK-2118","CLASSIFICATION_TYPE":"U","NORAD_CAT_ID":"47396","MEAN_MOTION":"15.06389465","REV_AT_EPOCH":"3403"},{"ECCENTRICITY":"0.00005500","DECAY_DATE":null,"MEAN_MOTION_DDOT":"0.0000000000000","LAUNCH_DATE":"2021-01-20","FILE":"3104038","CENTER_NAME":"EARTH","RCS_SIZE":"LARGE","PERIAPSIS":"546.819","EPHEMERIS_TYPE":"0","TLE_LINE2":"2 47397  53.0554 291.3709 0000550 112.8107 247.2940 15.06404448 33599","BSTAR":"0.00007374600000","CLASSIFICATION_TYPE":"U","OBJECT_NAME":"STARLINK-2119","REV_AT_EPOCH":"3359","NORAD_CAT_ID":"47397","MEAN_MOTION":"15.06404448","APOAPSIS":"547.581","INCLINATION":"53.0554","EPOCH":"2021-08-27T15:41:59.291808","MEAN_ELEMENT_THEORY":"SGP4","OBJECT_ID":"2021-005BA","TIME_SYSTEM":"UTC","GP_ID":"183557097","TLE_LINE1":"1 47397U 21005BA  21239.65415847  .00000818  00000-0  73746-4 0  9993","OBJECT_TYPE":"PAYLOAD","SITE":"AFETR","COUNTRY_CODE":"US","MEAN_MOTION_DOT":"0.00000818","RA_OF_ASC_NODE":"291.3709","REF_FRAME":"TEME","MEAN_ANOMALY":"247.2940","ELEMENT_SET_NO":"999","PERIOD":"95.592","SEMIMAJOR_AXIS":"6925.335","ARG_OF_PERICENTER":"112.8107"},{"EPOCH":"2021-08-27T18:14:35.704608","INCLINATION":"53.0529","APOAPSIS":"547.308","TIME_SYSTEM":"UTC","OBJECT_ID":"2021-005BB","MEAN_ELEMENT_THEORY":"SGP4","TLE_LINE1":"1 47398U 21005BB  21239.76013547 -.00000882  00000-0 -40362-4 0  9998","GP_ID":"183557844","SITE":"AFETR","OBJECT_TYPE":"PAYLOAD","COUNTRY_CODE":"US","RA_OF_ASC_NODE":"260.8970","REF_FRAME":"TEME","MEAN_MOTION_DOT":"-0.00000882","MEAN_ANOMALY":"25.6166","ELEMENT_SET_NO":"999","SEMIMAJOR_AXIS":"6925.371","ARG_OF_PERICENTER":"334.4818","PERIOD":"95.593","ECCENTRICITY":"0.00001040","DECAY_DATE":null,"MEAN_MOTION_DDOT":"0.0000000000000","LAUNCH_DATE":"2021-01-20","FILE":"3104038","RCS_SIZE":"LARGE","PERIAPSIS":"547.164","CENTER_NAME":"EARTH","EPHEMERIS_TYPE":"0","BSTAR":"-0.00004036200000","TLE_LINE2":"2 47398  53.0529 260.8970 0000104 334.4818  25.6166 15.06392727 34022","CLASSIFICATION_TYPE":"U","OBJECT_NAME":"STARLINK-2120","REV_AT_EPOCH":"3402","MEAN_MOTION":"15.06392727","NORAD_CAT_ID":"47398"},{"RA_OF_ASC_NODE":"271.7154","REF_FRAME":"TEME","MEAN_MOTION_DOT":"0.00000875","SEMIMAJOR_AXIS":"6925.383","ARG_OF_PERICENTER":"64.9154","PERIOD":"95.593","ELEMENT_SET_NO":"999","MEAN_ANOMALY":"295.1905","TLE_LINE1":"1 47399U 21005BC  21239.57397809  .00000875  00000-0  77628-4 0  9999","GP_ID":"183556611","OBJECT_ID":"2021-005BC","TIME_SYSTEM":"UTC","MEAN_ELEMENT_THEORY":"SGP4","EPOCH":"2021-08-27T13:46:31.706976","INCLINATION":"53.0528","APOAPSIS":"547.720","COUNTRY_CODE":"US","SITE":"AFETR","OBJECT_TYPE":"PAYLOAD","OBJECT_NAME":"STARLINK-2121","CLASSIFICATION_TYPE":"U","MEAN_MOTION":"15.06388750","NORAD_CAT_ID":"47399","REV_AT_EPOCH":"3385","MEAN_MOTION_DDOT":"0.0000000000000","DECAY_DATE":null,"ECCENTRICITY":"0.00006810","BSTAR":"0.00007762800000","TLE_LINE2":"2 47399  53.0528 271.7154 0000681  64.9154 295.1905 15.06388750 33851","RCS_SIZE":"LARGE","FILE":"3104038","CENTER_NAME":"EARTH","PERIAPSIS":"546.776","EPHEMERIS_TYPE":"0","LAUNCH_DATE":"2021-01-20"}];
